NORAD_CAT_ID,OBJECT_NAME,OBJECT_TYPE,EPOCH,MEAN_MOTION,ECCENTRICITY,INCLINATION,RA_OF_ASC_NODE,ARG_OF_PERICENTER,MEAN_ANOMALY,BSTAR,MEAN_MOTION_DOT,MEAN_MOTION_DDOT,TLE_LINE0,TLE_LINE1,TLE_LINE2,SEMIMAJOR_AXIS,PERIOD,APOGEE,PERIGEE,DECAYED
53257.0,STARLINK-4144,PAYLOAD,2022-08-19 22:00:00,15.7313575,0.0002604,53.2189,272.7756,16.2499,58.2968,0.00029354,0.00040666,0.0,0 STARLINK-4144,1 53257U 22086R   22231.91667824  .00040666  00000-0  29354-3 0  9991,2 53257  53.2189 272.7756 0002604  16.2499  58.2968 15.73135750  1300,6728.078,91.537,351.695,348.191,0.0
53257.0,STARLINK-4144,PAYLOAD,2022-08-20 06:00:00,15.73171134,0.0002745,53.2187,271.127,20.3618,143.061,-0.00031253,-0.00044208,0.0,0 STARLINK-4144,1 53257U 22086R   22232.25001157 -.00044208  00000-0 -31253-3 0  9999,2 53257  53.2187 271.1270 0002745  20.3618 143.0610 15.73171134  4831,6727.977,91.535,351.689,347.996,0.0
53257.0,STARLINK-4144,PAYLOAD,2022-08-20 14:00:01,15.73201552,0.0002459,53.2172,269.4679,20.6849,231.5934,4.394100000000001e-05,5.550000000000003e-05,0.0,0 STARLINK-4144,1 53257U 22086R   22232.58334491  .00005550  00000-0  43941-4 0  9998,2 53257  53.2172 269.4679 0002459  20.6849 231.5934 15.73201552  4884,6727.891,91.533,351.41,348.101,0.0
53257.0,STARLINK-4144,PAYLOAD,2022-08-20 22:00:00,15.73190511,0.0002583,53.2185,267.8275,14.2556,327.0518,0.00011604,0.00015689,0.0,0 STARLINK-4144,1 53257U 22086R   22232.91667824  .00015689  00000-0  11604-3 0  9998,2 53257  53.2185 267.8275 0002583  14.2556 327.0518 15.73190511  4931,6727.922,91.534,351.525,348.0490000000001,0.0
53257.0,STARLINK-4144,PAYLOAD,2022-08-21 14:00:01,15.73145026,0.0002895,53.2184,264.5308,8.8008,150.3594,0.00051154,0.00071625,0.0,0 STARLINK-4144,1 53257U 22086R   22233.58334491  .00071625  00000-0  51154-3 0  9999,2 53257  53.2184 264.5308 0002895   8.8008 150.3594 15.73145026  5043,6728.052,91.536,351.865,347.969,0.0
53257.0,STARLINK-4144,PAYLOAD,2022-08-21 22:00:00,15.73164507,0.0002695,53.2184,262.8795,10.0708,237.988,0.0005559,0.00078013,0.0,0 STARLINK-4144,1 53257U 22086R   22233.91667824  .00078013  00000-0  55590-3 0  9991,2 53257  53.2184 262.8795 0002695  10.0708 237.9880 15.73164507  1304,6727.996,91.535,351.675,348.048,0.0
53257.0,STARLINK-4144,PAYLOAD,2022-08-22 06:00:00,15.73226038,0.000279,53.2182,261.2313,11.3196,325.645,-4.8328e-05,-7.408e-05,0.0,0 STARLINK-4144,1 53257U 22086R   22234.25001157 -.00007408  00000-0 -48328-4 0  9994,2 53257  53.2182 261.2313 0002790  11.3196 325.6450 15.73226038  5144,6727.821,91.532,351.56300000000016,347.809,0.0
53257.0,STARLINK-4144,PAYLOAD,2022-08-22 12:00:00,15.73230154,0.0002948,53.2179,259.9955,9.6651,304.0219,-0.00014461,-0.00020898,0.0,0 STARLINK-4144,1 53257U 22086R   22234.50001157 -.00020898  00000-0 -14461-3 0  9990,2 53257  53.2179 259.9955 0002948   9.6651 304.0219 15.73230154  1309,6727.809,91.531,351.658,347.691,0.0
53257.0,STARLINK-4144,PAYLOAD,2022-08-22 22:00:00,15.73170241,0.0002676,53.2177,257.9314,8.4783,146.4059,0.00045088,0.0006306,0.0,0 STARLINK-4144,1 53257U 22086R   22234.91667824  .00063060  00000-0  45088-3 0  9999,2 53257  53.2177 257.9314 0002676   8.4783 146.4059 15.73170241  1305,6727.98,91.535,351.645,348.045,0.0
53257.0,STARLINK-4144,PAYLOAD,2022-08-23 12:00:00,15.73137492,0.000308,53.2179,255.0472,14.1452,206.358,0.0005702999999999,0.0007997999999999,0.0,0 STARLINK-4144,1 53257U 22086R   22235.50001157  .00079980  00000-0  57030-3 0  9994,2 53257  53.2179 255.0472 0003080  14.1452 206.3580 15.73137492  5342,6728.073,91.537,352.011,347.866,0.0
53257.0,STARLINK-4144,PAYLOAD,2022-08-23 14:00:01,15.73164541,0.0003086,53.2176,254.6346,13.6774,319.0383,0.00030537,0.00042394,0.0,0 STARLINK-4144,1 53257U 22086R   22235.58334491  .00042394  00000-0  30537-3 0  9994,2 53257  53.2176 254.6346 0003086  13.6774 319.0383 15.73164541  1301,6727.996,91.535,351.93800000000016,347.785,0.0
53257.0,STARLINK-4144,PAYLOAD,2022-08-23 20:00:01,15.73170628,0.0002883999999999,53.2178,253.3961,15.9239,293.4675,0.00029138,0.00040423,0.0,0 STARLINK-4144,1 53257U 22086R   22235.83334491  .00040423  00000-0  29138-3 0  9998,2 53257  53.2178 253.3961 0002884  15.9239 293.4675 15.73170628  5393,6727.979,91.535,351.784,347.904,0.0
53257.0,STARLINK-4144,PAYLOAD,2022-08-23 22:00:01,15.73161871,0.0002842,53.2176,252.9833,16.2934,45.394,0.00051053,0.00071533,0.0,0 STARLINK-4144,1 53257U 22086R   22235.91668981  .00071533  00000-0  51053-3 0  9998,2 53257  53.2176 252.9833 0002842  16.2934  45.3940 15.73161871  1300,6728.004,91.535,351.781,347.957,0.0
53257.0,STARLINK-4144,PAYLOAD,2022-08-24 14:00:01,15.73228486,0.0003101,53.2166,249.6864,16.692999999999998,222.7913,0.00018002,0.00024752,0.0,0 STARLINK-4144,1 53257U 22086R   22236.58334491  .00024752  00000-0  18002-3 0  9996,2 53257  53.2166 249.6864 0003101  16.6930 222.7913 15.73228486  1302,6727.814,91.532,351.765,347.593,0.0
53257.0,STARLINK-4144,PAYLOAD,2022-08-24 22:00:00,15.73243621,0.0002818,53.2168,248.0349,17.2242,311.2345,-0.00013752,-0.00019917,0.0,0 STARLINK-4144,1 53257U 22086R   22236.91667824 -.00019917  00000-0 -13752-3 0  9998,2 53257  53.2168 248.0349 0002818  17.2242 311.2345 15.73243621  5565,6727.771,91.531,351.532,347.74,0.0
53257.0,STARLINK-4144,PAYLOAD,2022-08-25 14:00:01,15.73205487,0.0002701,53.2173,244.7236,19.802,126.4897,-1.7930999999999998e-05,-3.139e-05,0.0,0 STARLINK-4144,1 53257U 22086R   22237.58334491 -.00003139  00000-0 -17931-4 0  9996,2 53257  53.2173 244.7236 0002701  19.8020 126.4897 15.73205487  5670,6727.88,91.533,351.56199999999984,347.927,0.0
53257.0,STARLINK-4144,PAYLOAD,2022-08-25 18:00:00,15.7320036,0.0002878,53.2171,243.9118,13.854,357.0041,9.1998e-05,0.0001230999999999,0.0,0 STARLINK-4144,1 53257U 22086R   22237.75001157  .00012310  00000-0  91998-4 0  9999,2 53257  53.2171 243.9118 0002878  13.8540 357.0041 15.73200360  5706,6727.894,91.533,351.695,347.8230000000001,0.0
53257.0,STARLINK-4144,PAYLOAD,2022-08-25 22:00:00,15.73193507,0.0002796999999999,53.2169,243.0864,14.0448,221.2825,0.00032838,0.00045709,0.0,0 STARLINK-4144,1 53257U 22086R   22237.91667824  .00045709  00000-0  32838-3 0  9991,2 53257  53.2169 243.0864 0002797  14.0448 221.2825 15.73193507  1300,6727.9140000000025,91.534,351.66,347.897,0.0
53257.0,STARLINK-4144,PAYLOAD,2022-08-26 14:00:01,15.73194164,0.0003041,53.2161,239.7891,11.7818,41.4684,9.3929e-05,0.00012579,0.0,0 STARLINK-4144,1 53257U 22086R   22238.58335648  .00012579  00000-0  93929-4 0  9999,2 53257  53.2161 239.7891 0003041  11.7818  41.4684 15.73194164  1307,6727.9119999999975,91.534,351.8230000000001,347.731,0.0
53257.0,STARLINK-4144,PAYLOAD,2022-08-26 22:00:00,15.73186982,0.0002751,53.2163,238.1379,13.6208,128.4946,0.00052166,0.00073199,0.0,0 STARLINK-4144,1 53257U 22086R   22238.91667824  .00073199  00000-0  52166-3 0  9992,2 53257  53.2163 238.1379 0002751  13.6208 128.4946 15.73186982  1300,6727.932,91.534,351.648,347.946,0.0
53257.0,STARLINK-4144,PAYLOAD,2022-08-27 14:00:01,15.73197921,0.0003006,53.2167,234.8405,9.1438,310.8545,5.9709e-05,7.766e-05,0.0,0 STARLINK-4144,1 53257U 22086R   22239.58334491  .00007766  00000-0  59709-4 0  9995,2 53257  53.2167 234.8405 0003006   9.1438 310.8545 15.73197921  1303,6727.901,91.533,351.789,347.744,0.0
53257.0,STARLINK-4144,PAYLOAD,2022-08-27 20:00:01,15.73174904,0.0002828,53.2168,233.6019,10.2779,286.4215,0.00053482,0.0007503999999999,0.0,0 STARLINK-4144,1 53257U 22086R   22239.83334491  .00075040  00000-0  53482-3 0  9994,2 53257  53.2168 233.6019 0002828  10.2779 286.4215 15.73174904  6026,6727.967,91.535,351.7340000000001,347.92900000000014,0.0
53257.0,STARLINK-4144,PAYLOAD,2022-08-27 22:00:00,15.73192268,0.0002796999999999,53.2168,233.1893,11.3957,37.5305,0.00039829,0.00055636,0.0,0 STARLINK-4144,1 53257U 22086R   22239.91667824  .00055636  00000-0  39829-3 0  9990,2 53257  53.2168 233.1893 0002797  11.3957  37.5305 15.73192268  1300,6727.917,91.534,351.664,347.9,0.0
53257.0,STARLINK-4144,PAYLOAD,2022-08-28 06:00:00,15.7322389,0.0003021,53.2165,231.5417,9.4514,128.4229,-0.00047903,-0.00067402,0.0,0 STARLINK-4144,1 53257U 22086R   22240.25001157 -.00067402  00000-0 -47903-3 0  9998,2 53257  53.2165 231.5417 0003021   9.4514 128.4229 15.73223890  6091,6727.8269999999975,91.532,351.725,347.66,0.0
53257.0,STARLINK-4144,PAYLOAD,2022-08-28 14:00:01,15.73221491,0.0002972,53.2162,229.8918,9.1169,217.7083,8.633e-06,5.9e-06,0.0,0 STARLINK-4144,1 53257U 22086R   22240.58334491  .00000590  00000-0  86330-5 0  9996,2 53257  53.2162 229.8918 0002972   9.1169 217.7083 15.73221491  1305,6727.834,91.532,351.6980000000001,347.699,0.0
53257.0,STARLINK-4144,PAYLOAD,2022-08-28 22:00:00,15.73226407,0.0002756,53.2166,228.2406,13.2296,302.5464,-0.00020484,-0.00029309,0.0,0 STARLINK-4144,1 53257U 22086R   22240.91667824 -.00029309  00000-0 -20484-3 0  9999,2 53257  53.2166 228.2406 0002756  13.2296 302.5464 15.73226407  1309,6727.82,91.532,351.539,347.831,0.0
53257.0,STARLINK-4144,PAYLOAD,2022-08-29 06:00:02,15.73221009,0.0003003999999999,53.2169,226.5931,13.7133,31.0631,-0.00062543,-0.00087592,0.0,0 STARLINK-4144,1 53257U 22086R   22241.25002315 -.00087592  00000-0 -62543-3 0  9995,2 53257  53.2169 226.5931 0003004  13.7133  31.0631 15.73221009  6250,6727.835,91.532,351.721,347.67900000000014,0.0
53257.0,STARLINK-4144,PAYLOAD,2022-08-29 14:00:01,15.73164564,0.0002991,53.217,224.9432,10.7884,122.8348,-1.2396e-05,-2.36e-05,0.0,0 STARLINK-4144,1 53257U 22086R   22241.58334491 -.00002360  00000-0 -12396-4 0  9996,2 53257  53.2170 224.9432 0002991  10.7884 122.8348 15.73164564  1301,6727.996,91.535,351.874,347.849,0.0
53257.0,STARLINK-4144,PAYLOAD,2022-08-29 22:00:00,15.73164524,0.0002798,53.2172,223.2924,13.7489,208.7609,0.00047243,0.00066112,0.0,0 STARLINK-4144,1 53257U 22086R   22241.91667824  .00066112  00000-0  47243-3 0  9993,2 53257  53.2172 223.2924 0002798  13.7489 208.7609 15.73164524  1300,6727.996,91.535,351.744,347.97900000000016,0.0
